ONEWEB-0320             
1 49190U 21083E   24286.52315921  .00000155  00000+0  36041-3 0  9994
2 49190  87.9049  97.4029 0001723  89.8693 270.2636 13.18686258149232
ONEWEB-0321             
1 49191U 21083F   24286.55576289  .00000184  00000+0  42004-3 0  9992
2 49191  87.9282  36.2982 0001991  99.8123 260.3235 13.20772644155967
ONEWEB-0322             
1 49192U 21083G   24286.45837928 -.00000103  00000+0 -31809-3 0  9996
2 49192  87.8871  82.1470 0002126  91.3451 268.7921 13.13470023150489
ONEWEB-0324             
1 49193U 21083H   24286.50893571  .00000125  00000+0  28547-3 0  9996
2 49193  87.9051  97.3868 0001597  79.6168 280.5144 13.18688033149254
ONEWEB-0325             
1 49194U 21083J   24286.51367700  .00000157  00000+0  36616-3 0  9999
2 49194  87.9052  97.4014 0001726  90.1844 269.9485 13.18686913149268
ONEWEB-0326             
1 49195U 21083K   24286.52790856  .00000170  00000+0  39857-3 0  9998
2 49195  87.9047  97.3943 0001183  90.6103 269.5165 13.18688077149256
ONEWEB-0327             
1 49196U 21083L   24286.45123306  .00000198  00000+0  46882-3 0  9997
2 49196  87.9049  97.4350 0001374  96.2247 263.9041 13.18686278149268
ONEWEB-0328             
1 49197U 21083M   24286.44886692  .00000046  00000+0  91822-4 0  9998
2 49197  87.8861  82.1207 0001633  89.7074 270.4242 13.13471362150466
